start=new Date('2023-03-31T00:00:00.000Z').valueOf();
sats=[{"EPHEMERIS_TYPE":"0","TLE_LINE2":"2 53559  53.2134 209.2906 0001136  77.3387 282.7732 15.08878404 34048","COUNTRY_CODE":"US","REF_FRAME":"TEME","DECAY_DATE":null,"EPOCH":"2023-03-30T20:15:16.266528","CLASSIFICATION_TYPE":"U","PERIOD":"95.435","FILE":"3875726","OBJECT_ID":"2022-101AJ","OBJECT_NAME":"STARLINK-4508","TIME_SYSTEM":"UTC","CENTER_NAME":"EARTH","LAUNCH_DATE":"2022-08-19","SEMIMAJOR_AXIS":"6917.763","NORAD_CAT_ID":"53559","APOAPSIS":"540.414","RA_OF_ASC_NODE":"209.2906","MEAN_MOTION":"15.08878404","OBJECT_TYPE":"PAYLOAD","MEAN_MOTION_DDOT":"0.0000000000000","GP_ID":"229185234","SITE":"AFETR","INCLINATION":"53.2134","MEAN_ELEMENT_THEORY":"SGP4","MEAN_MOTION_DOT":"0.00040733","RCS_SIZE":"LARGE","ECCENTRICITY":"0.00011360","ELEMENT_SET_NO":"999","ARG_OF_PERICENTER":"77.3387","REV_AT_EPOCH":"3404","TLE_LINE1":"1 53559U 22101AJ  23089.84393827  .00040733  00000-0  25600-2 0  9991","BSTAR":"0.00256000000000","MEAN_ANOMALY":"282.7732","PERIAPSIS":"538.842"},{"REV_AT_EPOCH":"3417","ARG_OF_PERICENTER":"111.6350","ELEMENT_SET_NO":"999","TLE_LINE1":"1 53560U 22101AK  23089.81910915  .00001708  00000-0  12531-3 0  9992","BSTAR":"0.00012531000000","MEAN_ANOMALY":"248.4778","PERIAPSIS":"538.793","SITE":"AFETR","INCLINATION":"53.2176","MEAN_ELEMENT_THEORY":"SGP4","MEAN_MOTION_DOT":"0.00001708","RCS_SIZE":"LARGE","ECCENTRICITY":"0.00012720","LAUNCH_DATE":"2022-08-19","NORAD_CAT_ID":"53560","APOAPSIS":"540.553","SEMIMAJOR_AXIS":"6917.808","MEAN_MOTION":"15.08863750","RA_OF_ASC_NODE":"199.5841","OBJECT_TYPE":"PAYLOAD","GP_ID":"229184985","MEAN_MOTION_DDOT":"0.0000000000000","TLE_LINE2":"2 53560  53.2176 199.5841 0001272 111.6350 248.4778 15.08863750 34179","EPHEMERIS_TYPE":"0","COUNTRY_CODE":"US","REF_FRAME":"TEME","EPOCH":"2023-03-30T19:39:31.030560","DECAY_DATE":null,"FILE":"3875726","PERIOD":"95.436","CLASSIFICATION_TYPE":"U","OBJECT_ID":"2022-101AK","TIME_SYSTEM":"UTC","OBJECT_NAME":"STARLINK-4564","CENTER_NAME":"EARTH"},{"OBJECT_ID":"2022-101AL","TIME_SYSTEM":"UTC","OBJECT_NAME":"STARLINK-4563","CENTER_NAME":"EARTH","TLE_LINE2":"2 53561  53.2152 209.6250 0001285  78.7950 281.3186 15.08867024 34036","EPHEMERIS_TYPE":"0","COUNTRY_CODE":"US","REF_FRAME":"TEME","EPOCH":"2023-03-30T18:30:39.957120","DECAY_DATE":null,"FILE":"3875726","PERIOD":"95.436","CLASSIFICATION_TYPE":"U","RA_OF_ASC_NODE":"209.6250","MEAN_MOTION":"15.08867024","OBJECT_TYPE":"PAYLOAD","GP_ID":"229185214","MEAN_MOTION_DDOT":"0.0000000000000","LAUNCH_DATE":"2022-08-19","APOAPSIS":"540.552","NORAD_CAT_ID":"53561","SEMIMAJOR_AXIS":"6917.798","MEAN_MOTION_DOT":"0.00038894","RCS_SIZE":"LARGE","ECCENTRICITY":"0.00012850","SITE":"AFETR","INCLINATION":"53.2152","MEAN_ELEMENT_THEORY":"SGP4","MEAN_ANOMALY":"281.3186","PERIAPSIS":"538.774","ARG_OF_PERICENTER":"78.7950","REV_AT_EPOCH":"3403","ELEMENT_SET_NO":"999","TLE_LINE1":"1 53561U 22101AL  23089.77129580  .00038894  00000-0  24466-2 0  9993","BSTAR":"0.00244660000000"},{"MEAN_ELEMENT_THEORY":"SGP4","SITE":"AFETR","INCLINATION":"53.2162","ECCENTRICITY":"0.00010700","MEAN_MOTION_DOT":"0.00043567","RCS_SIZE":"LARGE","BSTAR":"0.00273490000000","ELEMENT_SET_NO":"999","ARG_OF_PERICENTER":"79.7508","REV_AT_EPOCH":"3483","TLE_LINE1":"1 53562U 22101AM  23089.81270870  .00043567  00000-0  27349-2 0  9994","PERIAPSIS":"538.852","MEAN_ANOMALY":"280.3605","DECAY_DATE":null,"EPOCH":"2023-03-30T19:30:18.031680","PERIOD":"95.434","CLASSIFICATION_TYPE":"U","FILE":"3875726","EPHEMERIS_TYPE":"0","TLE_LINE2":"2 53562  53.2162 199.5461 0001070  79.7508 280.3605 15.08890280 34834","REF_FRAME":"TEME","COUNTRY_CODE":"US","CENTER_NAME":"EARTH","OBJECT_ID":"2022-101AM","OBJECT_NAME":"STARLINK-4565","TIME_SYSTEM":"UTC","LAUNCH_DATE":"2022-08-19","SEMIMAJOR_AXIS":"6917.727","APOAPSIS":"540.332","NORAD_CAT_ID":"53562","MEAN_MOTION_DDOT":"0.0000000000000","GP_ID":"229184484","MEAN_MOTION":"15.08890280","RA_OF_ASC_NODE":"199.5461","OBJECT_TYPE":"PAYLOAD"},{"BSTAR":"0.00239680000000","TLE_LINE1":"1 53563U 22101AN  23089.82280552  .00038105  00000-0  23968-2 0  9999","ELEMENT_SET_NO":"999","REV_AT_EPOCH":"3417","ARG_OF_PERICENTER":"72.1463","PERIAPSIS":"538.509","MEAN_ANOMALY":"287.9705","MEAN_ELEMENT_THEORY":"SGP4","INCLINATION":"53.2159","SITE":"AFETR","ECCENTRICITY":"0.00016130","RCS_SIZE":"LARGE","MEAN_MOTION_DOT":"0.00038105","SEMIMAJOR_AXIS":"6917.759","NORAD_CAT_ID":"53563","APOAPSIS":"540.740","LAUNCH_DATE":"2022-08-19","MEAN_MOTION_DDOT":"0.0000000000000","GP_ID":"229184736","OBJECT_TYPE":"PAYLOAD","RA_OF_ASC_NODE":"199.6080","MEAN_MOTION":"15.08879570","PERIOD":"95.435","CLASSIFICATION_TYPE":"U","FILE":"3875726","DECAY_DATE":null,"EPOCH":"2023-03-30T19:44:50.396928","REF_FRAME":"TEME","COUNTRY_CODE":"US","EPHEMERIS_TYPE":"0","TLE_LINE2":"2 53563  53.2159 199.6080 0001613  72.1463 287.9705 15.08879570 34179","CENTER_NAME":"EARTH","OBJECT_NAME":"STARLINK-4561","TIME_SYSTEM":"UTC","OBJECT_ID":"2022-101AN"},{"OBJECT_ID":"2022-101AP","OBJECT_NAME":"STARLINK-4577","TIME_SYSTEM":"UTC","CENTER_NAME":"EARTH","EPHEMERIS_TYPE":"0","TLE_LINE2":"2 53564  53.2190 200.7098 0001348 105.1216 254.9925 15.08843193 34132","COUNTRY_CODE":"US","REF_FRAME":"TEME","DECAY_DATE":null,"EPOCH":"2023-03-30T13:02:04.625376","CLASSIFICATION_TYPE":"U","PERIOD":"95.437","FILE":"3875726","RA_OF_ASC_NODE":"200.7098","MEAN_MOTION":"15.08843193","OBJECT_TYPE":"PAYLOAD","MEAN_MOTION_DDOT":"0.0000000000000","GP_ID":"229185485","LAUNCH_DATE":"2022-08-19","SEMIMAJOR_AXIS":"6917.871","APOAPSIS":"540.668","NORAD_CAT_ID":"53564","MEAN_MOTION_DOT":"0.00000434","RCS_SIZE":"LARGE","ECCENTRICITY":"0.00013480","SITE":"AFETR","INCLINATION":"53.2190","MEAN_ELEMENT_THEORY":"SGP4","MEAN_ANOMALY":"254.9925","PERIAPSIS":"538.803","ELEMENT_SET_NO":"999","REV_AT_EPOCH":"3413","ARG_OF_PERICENTER":"105.1216","TLE_LINE1":"1 53564U 22101AP  23089.54310909  .00000434  00000-0  45361-4 0  9996","BSTAR":"0.00004536100000"},{"MEAN_MOTION_DOT":"0.00035069","RCS_SIZE":"LARGE","ECCENTRICITY":"0.00010520","SITE":"AFETR","INCLINATION":"53.2153","MEAN_ELEMENT_THEORY":"SGP4","MEAN_ANOMALY":"275.9381","PERIAPSIS":"538.880","ELEMENT_SET_NO":"999","ARG_OF_PERICENTER":"84.1731","REV_AT_EPOCH":"3483","TLE_LINE1":"1 53565U 22101AQ  23089.81543550  .00035069  00000-0  22079-2 0  9998","BSTAR":"0.00220790000000","OBJECT_ID":"2022-101AQ","OBJECT_NAME":"STARLINK-4575","TIME_SYSTEM":"UTC","CENTER_NAME":"EARTH","EPHEMERIS_TYPE":"0","TLE_LINE2":"2 53565  53.2153 199.5608 0001052  84.1731 275.9381 15.08884958 34834","COUNTRY_CODE":"US","REF_FRAME":"TEME","DECAY_DATE":null,"EPOCH":"2023-03-30T19:34:13.627200","PERIOD":"95.435","CLASSIFICATION_TYPE":"U","FILE":"3875726","RA_OF_ASC_NODE":"199.5608","MEAN_MOTION":"15.08884958","OBJECT_TYPE":"PAYLOAD","MEAN_MOTION_DDOT":"0.0000000000000","GP_ID":"229185714","LAUNCH_DATE":"2022-08-19","SEMIMAJOR_AXIS":"6917.743","NORAD_CAT_ID":"53565","APOAPSIS":"540.336"},{"OBJECT_ID":"2022-101AR","TIME_SYSTEM":"UTC","OBJECT_NAME":"STARLINK-4576","CENTER_NAME":"EARTH","TLE_LINE2":"2 53566  53.2168 200.6625 0001114 104.1327 255.9789 15.08851671 34822","EPHEMERIS_TYPE":"0","COUNTRY_CODE":"US","REF_FRAME":"TEME","EPOCH":"2023-03-30T12:51:28.126080","DECAY_DATE":null,"FILE":"3875726","CLASSIFICATION_TYPE":"U","PERIOD":"95.437","RA_OF_ASC_NODE":"200.6625","MEAN_MOTION":"15.08851671","OBJECT_TYPE":"PAYLOAD","GP_ID":"229183985","MEAN_MOTION_DDOT":"0.0000000000000","LAUNCH_DATE":"2022-08-19","NORAD_CAT_ID":"53566","APOAPSIS":"540.480","SEMIMAJOR_AXIS":"6917.845","MEAN_MOTION_DOT":"0.00040511","RCS_SIZE":"LARGE","ECCENTRICITY":"0.00011140","SITE":"AFETR","INCLINATION":"53.2168","MEAN_ELEMENT_THEORY":"SGP4","MEAN_ANOMALY":"255.9789","PERIAPSIS":"538.939","REV_AT_EPOCH":"3482","ARG_OF_PERICENTER":"104.1327","ELEMENT_SET_NO":"999","TLE_LINE1":"1 53566U 22101AR  23089.53574220  .00040511  00000-0  25481-2 0  9994","BSTAR":"0.00254810000000"},{"MEAN_MOTION_DDOT":"0.0000000000000","GP_ID":"229185235","RA_OF_ASC_NODE":"199.5384","MEAN_MOTION":"15.08896457","OBJECT_TYPE":"PAYLOAD","LAUNCH_DATE":"2022-08-19","SEMIMAJOR_AXIS":"6917.708","NORAD_CAT_ID":"53567","APOAPSIS":"540.567","CENTER_NAME":"EARTH","OBJECT_ID":"2022-101AS","OBJECT_NAME":"STARLINK-4585","TIME_SYSTEM":"UTC","DECAY_DATE":null,"EPOCH":"2023-03-30T19:28:55.104096","CLASSIFICATION_TYPE":"U","PERIOD":"95.434","FILE":"3875726","EPHEMERIS_TYPE":"0","TLE_LINE2":"2 53567  53.2160 199.5384 0001437 120.6773 239.4361 15.08896457 34171","REF_FRAME":"TEME","COUNTRY_CODE":"US","PERIAPSIS":"538.579","MEAN_ANOMALY":"239.4361","BSTAR":"0.00188440000000","ELEMENT_SET_NO":"999","ARG_OF_PERICENTER":"120.6773","REV_AT_EPOCH":"3417","TLE_LINE1":"1 53567U 22101AS  23089.81174889  .00029876  00000-0  18844-2 0  9999","ECCENTRICITY":"0.00014370","MEAN_MOTION_DOT":"0.00029876","RCS_SIZE":"LARGE","MEAN_ELEMENT_THEORY":"SGP4","SITE":"AFETR","INCLINATION":"53.2160"},{"TLE_LINE1":"1 53568U 22101AT  23089.78962357 -.00000616  00000-0 -20638-4 0  9990","ELEMENT_SET_NO":"999","REV_AT_EPOCH":"3486","ARG_OF_PERICENTER":"93.8425","BSTAR":"-0.00002063800000","MEAN_ANOMALY":"266.2655","PERIAPSIS":"539.120","INCLINATION":"53.2173","SITE":"AFETR","MEAN_ELEMENT_THEORY":"SGP4","RCS_SIZE":"LARGE","MEAN_MOTION_DOT":"-0.00000616","ECCENTRICITY":"0.00007640","SEMIMAJOR_AXIS":"6917.783","NORAD_CAT_ID":"53568","APOAPSIS":"540.177","LAUNCH_DATE":"2022-08-19","OBJECT_TYPE":"PAYLOAD","MEAN_MOTION":"15.08871798","RA_OF_ASC_NODE":"199.4049","MEAN_MOTION_DDOT":"0.0000000000000","GP_ID":"229184986","REF_FRAME":"TEME","COUNTRY_CODE":"US","EPHEMERIS_TYPE":"0","TLE_LINE2":"2 53568  53.2173 199.4049 0000764  93.8425 266.2655 15.08871798 34861","PERIOD":"95.436","CLASSIFICATION_TYPE":"U","FILE":"3875726","DECAY_DATE":null,"EPOCH":"2023-03-30T18:57:03.476448","OBJECT_NAME":"STARLINK-4583","TIME_SYSTEM":"UTC","OBJECT_ID":"2022-101AT","CENTER_NAME":"EARTH"}];
